{
  "type": "FeatureCollection",
  "features": [
    {
      "type": "Feature",
      "properties": {
        "kind": "boundary",
        "region_id": "E12",
        "polygon_index": 0,
        "edge_distance_lon": [
          0.3,
          0.5
        ],
        "edge_distance_lat": [
          0.3,
          0.3
        ],
        "guide": "horizontal"
      },
      "geometry": {
        "type": "Polygon",
        "coordinates": [
          [
            [
              110.6472705359003,
              35.60429209318158
            ],
            [
              110.64776463744738,
              35.60429273226822
            ],
            [
              110.64776416327175,
              35.60442191035046
            ],
            [
              110.64727006172468,
              35.60442127126381
            ],
            [
              110.6472705359003,
              35.60429209318158
            ]
          ]
        ]
      }
    },
    {
      "type": "Feature",
      "properties": {
        "kind": "boundary",
        "region_id": "E13",
        "polygon_index": 0,
        "edge_distance_lon": [
          0.15,
          0.5
        ],
        "edge_distance_lat": [
          0.3,
          0.3
        ],
        "guide": "horizontal"
      },
      "geometry": {
        "type": "Polygon",
        "coordinates": [
          [
            [
              110.64727121304462,
              35.60413324826891
            ],
            [
              110.64742160658875,
              35.604133122099874
            ],
            [
              110.64742115468336,
              35.60426196801417
            ],
            [
              110.64727076113923,
              35.604262094183206
            ],
            [
              110.64727121304462,
              35.60413324826891
            ]
          ]
        ]
      }
    },
    {
      "type": "Feature",
      "properties": {
        "kind": "boundary",
        "region_id": "E13",
        "polygon_index": 1,
        "edge_distance_lon": [
          0.3,
          0.1
        ],
        "edge_distance_lat": [
          0.3,
          0.3
        ],
        "guide": "horizontal"
      },
      "geometry": {
        "type": "Polygon",
        "coordinates": [
          [
            [
              110.64742941814059,
              35.60415366277343
            ],
            [
              110.64776491482968,
              35.60415389596566
            ],
            [
              110.64776464459975,
              35.60426221780848
            ],
            [
              110.64742914791067,
              35.60426198461625
            ],
            [
              110.64742941814059,
              35.60415366277343
            ]
          ]
        ]
      }
    },
    {
      "type": "Feature",
      "properties": {
        "kind": "boundary",
        "region_id": "E14",
        "polygon_index": 0,
        "edge_distance_lon": [
          0.3,
          0.5
        ],
        "edge_distance_lat": [
          0.3,
          0.3
        ],
        "guide": "horizontal"
      },
      "geometry": {
        "type": "Polygon",
        "coordinates": [
          [
            [
              110.64727241185074,
              35.60387332847705
            ],
            [
              110.64776723843342,
              35.603863009383225
            ],
            [
              110.64776609371995,
              35.60403166766645
            ],
            [
              110.64727126713728,
              35.60404198676027
            ],
            [
              110.64727241185074,
              35.60387332847705
            ]
          ]
        ]
      }
    },
    {
      "type": "Feature",
      "properties": {
        "kind": "bridge",
        "connector_id": "bridge_5B-6B",
        "edge_distance_lon": [
          0.1,
          0.1
        ],
        "edge_distance_lat": [
          0.1,
          0.1
        ]
      },
      "geometry": {
        "type": "LineString",
        "coordinates": [
          [
            110.64741549006075,
            35.60589856772437
          ],
          [
            110.64741642174106,
            35.60568374013546
          ]
        ]
      }
    },
    {
      "type": "Feature",
      "properties": {
        "kind": "bridge",
        "connector_id": "bridge_6A-7bB",
        "edge_distance_lon": [
          0.1,
          0.1
        ],
        "edge_distance_lat": [
          0.1,
          0.1
        ]
      },
      "geometry": {
        "type": "LineString",
        "coordinates": [
          [
            110.64741690256913,
            35.605502653578235
          ],
          [
            110.64741521205767,
            35.605467251897565
          ]
        ]
      }
    },
    {
      "type": "Feature",
      "properties": {
        "kind": "bridge",
        "connector_id": "bridge_7bA-7A",
        "edge_distance_lon": [
          0.3,
          0.3
        ],
        "edge_distance_lat": [
          0.1,
          0.5
        ]
      },
      "geometry": {
        "type": "LineString",
        "coordinates": [
          [
            110.64741623970805,
            35.605286201553355
          ],
          [
            110.64776001450005,
            35.605286952396405
          ]
        ]
      }
    },
    {
      "type": "Feature",
      "properties": {
        "kind": "bridge",
        "connector_id": "bridge_8B-9A",
        "edge_distance_lon": [
          0.1,
          0.1
        ],
        "edge_distance_lat": [
          -3.2,
          2.3
        ]
      },
      "geometry": {
        "type": "LineString",
        "coordinates": [
          [
            110.6477602879233,
            35.605252466171876
          ],
          [
            110.6477609856752,
            35.60500043052129
          ]
        ]
      }
    },
    {
      "type": "Feature",
      "properties": {
        "kind": "bridge",
        "connector_id": "bridge_10A-11B",
        "edge_distance_lon": [
          0.1,
          0.1
        ],
        "edge_distance_lat": [
          0.1,
          0.1
        ]
      },
      "geometry": {
        "type": "LineString",
        "coordinates": [
          [
            110.64776183179559,
            35.604852917286685
          ],
          [
            110.64776265157377,
            35.60475014299974
          ]
        ]
      }
    },
    {
      "type": "Feature",
      "properties": {
        "kind": "bridge",
        "connector_id": "bridge_11A-12B",
        "edge_distance_lon": [
          0.1,
          0.1
        ],
        "edge_distance_lat": [
          0.1,
          0.1
        ]
      },
      "geometry": {
        "type": "LineString",
        "coordinates": [
          [
            110.64776313280512,
            35.60452749634761
          ],
          [
            110.64776416327175,
            35.60442191035046
          ]
        ]
      }
    },
    {
      "type": "Feature",
      "properties": {
        "kind": "bridge",
        "connector_id": "bridge_12-13B",
        "edge_distance_lon": [
          0.1,
          0.1
        ],
        "edge_distance_lat": [
          0.1,
          -0.3
        ],
        "from_region": "E12",
        "to_region": "E13"
      },
      "geometry": {
        "type": "LineString",
        "coordinates": [
          [
            110.64776463744738,
            35.60429273226822
          ],
          [
            110.64776464459975,
            35.60426221780848
          ]
        ]
      }
    },
    {
      "type": "Feature",
      "properties": {
        "kind": "bridge",
        "connector_id": "bridge_13-14B",
        "edge_distance_lon": [
          0.1,
          0.1
        ],
        "edge_distance_lat": [
          0.1,
          -0.3
        ],
        "from_region": "E13",
        "to_region": "E14"
      },
      "geometry": {
        "type": "LineString",
        "coordinates": [
          [
            110.64776491482968,
            35.60415389596566
          ],
          [
            110.64776557275421,
            35.60404401827957
          ],
          [
            110.64776609371995,
            35.60403166766645
          ]
        ]
      }
    },
    {
      "type": "Feature",
      "properties": {
        "kind": "bridge",
        "connector_id": "back_14B-13A_stop",
        "edge_distance_lon": [
          0.1,
          0.1
        ],
        "edge_distance_lat": [
          0.1,
          0.1
        ]
      },
      "geometry": {
        "type": "LineString",
        "coordinates": [
          [
            110.64776557275421,
            35.60404401827957
          ],
          [
            110.64776491482968,
            35.60415389596566
          ]
        ]
      }
    },
    {
      "type": "Feature",
      "properties": {
        "kind": "bridge",
        "connector_id": "back_13B-12A",
        "edge_distance_lon": [
          0.1,
          0.1
        ],
        "edge_distance_lat": [
          0.1,
          0.1
        ]
      },
      "geometry": {
        "type": "LineString",
        "coordinates": [
          [
            110.64776464459975,
            35.60426221780848
          ],
          [
            110.64776463744738,
            35.60429273226822
          ]
        ]
      }
    },
    {
      "type": "Feature",
      "properties": {
        "kind": "bridge",
        "connector_id": "back_12B-11A",
        "edge_distance_lon": [
          0.1,
          0.1
        ],
        "edge_distance_lat": [
          0.1,
          0.1
        ]
      },
      "geometry": {
        "type": "LineString",
        "coordinates": [
          [
            110.64776416327175,
            35.60442191035046
          ],
          [
            110.64776313280512,
            35.60452749634761
          ]
        ]
      }
    },
    {
      "type": "Feature",
      "properties": {
        "kind": "bridge",
        "connector_id": "back_11B-10A",
        "edge_distance_lon": [
          0.1,
          0.1
        ],
        "edge_distance_lat": [
          0.1,
          0.1
        ]
      },
      "geometry": {
        "type": "LineString",
        "coordinates": [
          [
            110.64776265157377,
            35.60475014299974
          ],
          [
            110.64776183179559,
            35.604852917286685
          ]
        ]
      }
    },
    {
      "type": "Feature",
      "properties": {
        "kind": "bridge",
        "connector_id": "back_9A-8B",
        "edge_distance_lon": [
          0.1,
          0.1
        ],
        "edge_distance_lat": [
          0.1,
          -3.6
        ]
      },
      "geometry": {
        "type": "LineString",
        "coordinates": [
          [
            110.6477609856752,
            35.60500043052129
          ],
          [
            110.6477602879233,
            35.605252466171876
          ]
        ]
      }
    },
    {
      "type": "Feature",
      "properties": {
        "kind": "bridge",
        "connector_id": "back_7A-7bA",
        "edge_distance_lon": [
          0.3,
          0.3
        ],
        "edge_distance_lat": [
          0.6,
          0.1
        ]
      },
      "geometry": {
        "type": "LineString",
        "coordinates": [
          [
            110.64776001450005,
            35.605286952396405
          ],
          [
            110.64741623970805,
            35.605286201553355
          ]
        ]
      }
    },
    {
      "type": "Feature",
      "properties": {
        "kind": "bridge",
        "connector_id": "back_7bB-6A",
        "edge_distance_lon": [
          0.1,
          0.1
        ],
        "edge_distance_lat": [
          0.1,
          0.1
        ]
      },
      "geometry": {
        "type": "LineString",
        "coordinates": [
          [
            110.64741521205767,
            35.605467251897565
          ],
          [
            110.64741690256913,
            35.605502653578235
          ]
        ]
      }
    },
    {
      "type": "Feature",
      "properties": {
        "kind": "bridge",
        "connector_id": "back_6B-5A",
        "edge_distance_lon": [
          0.1,
          0.1
        ],
        "edge_distance_lat": [
          0.1,
          0.1
        ]
      },
      "geometry": {
        "type": "LineString",
        "coordinates": [
          [
            110.64741642174106,
            35.60568374013546
          ],
          [
            110.64741639744143,
            35.60571753896705
          ]
        ]
      }
    },
    {
      "type": "Feature",
      "properties": {
        "kind": "bridge",
        "connector_id": "back_5B-4A",
        "edge_distance_lon": [
          0.1,
          0.1
        ],
        "edge_distance_lat": [
          0.1,
          0.1
        ]
      },
      "geometry": {
        "type": "LineString",
        "coordinates": [
          [
            110.64741549006075,
            35.60589856772437
          ],
          [
            110.64741564488955,
            35.605933355288805
          ]
        ]
      }
    },
    {
      "type": "Feature",
      "properties": {
        "index": 0,
        "sequence": 0,
        "kind": "connector",
        "length_m": 23.747191,
        "connector_id": "bridge_5B-6B"
      },
      "geometry": {
        "type": "LineString",
        "coordinates": [
          [
            110.64741549006075,
            35.60589856772437
          ],
          [
            110.64741642174106,
            35.60568374013546
          ]
        ]
      }
    },
    {
      "type": "Feature",
      "properties": {
        "index": 1,
        "sequence": 1,
        "kind": "connector",
        "length_m": 3.916292,
        "connector_id": "bridge_6A-7bB"
      },
      "geometry": {
        "type": "LineString",
        "coordinates": [
          [
            110.64741690256913,
            35.605502653578235
          ],
          [
            110.64741521205767,
            35.605467251897565
          ]
        ]
      }
    },
    {
      "type": "Feature",
      "properties": {
        "index": 2,
        "sequence": 2,
        "kind": "connector",
        "length_m": 31.115003,
        "connector_id": "bridge_7bA-7A"
      },
      "geometry": {
        "type": "LineString",
        "coordinates": [
          [
            110.64741623970805,
            35.605286201553355
          ],
          [
            110.64776001450005,
            35.605286952396405
          ]
        ]
      }
    },
    {
      "type": "Feature",
      "properties": {
        "index": 3,
        "sequence": 3,
        "kind": "connector",
        "length_m": 27.860092,
        "connector_id": "bridge_8B-9A"
      },
      "geometry": {
        "type": "LineString",
        "coordinates": [
          [
            110.6477602879233,
            35.605252466171876
          ],
          [
            110.6477609856752,
            35.60500043052129
          ]
        ]
      }
    },
    {
      "type": "Feature",
      "properties": {
        "index": 4,
        "sequence": 4,
        "kind": "connector",
        "length_m": 11.360912,
        "connector_id": "bridge_10A-11B"
      },
      "geometry": {
        "type": "LineString",
        "coordinates": [
          [
            110.64776183179559,
            35.604852917286685
          ],
          [
            110.64776265157377,
            35.60475014299974
          ]
        ]
      }
    },
    {
      "type": "Feature",
      "properties": {
        "index": 5,
        "sequence": 5,
        "kind": "connector",
        "length_m": 11.671849,
        "connector_id": "bridge_11A-12B"
      },
      "geometry": {
        "type": "LineString",
        "coordinates": [
          [
            110.64776313280512,
            35.60452749634761
          ],
          [
            110.64776416327175,
            35.60442191035046
          ]
        ]
      }
    },
    {
      "type": "Feature",
      "properties": {
        "index": 6,
        "sequence": 6,
        "kind": "coverage",
        "length_m": 41.921104,
        "region_id": "E12"
      },
      "geometry": {
        "type": "LineString",
        "coordinates": [
          [
            110.64774986817515,
            35.60440337225511
          ],
          [
            110.64728670029365,
            35.60440337225511
          ]
        ]
      }
    },
    {
      "type": "Feature",
      "properties": {
        "index": 7,
        "sequence": 7,
        "kind": "connector",
        "length_m": 1.003006,
        "region_id": "E12"
      },
      "geometry": {
        "type": "LineString",
        "coordinates": [
          [
            110.64728670029365,
            35.60440337225511
          ],
          [
            110.64728673350075,
            35.60440337225511
          ],
          [
            110.64728673350075,
            35.60439432575611
          ]
        ]
      }
    },
    {
      "type": "Feature",
      "properties": {
        "index": 8,
        "sequence": 8,
        "kind": "coverage",
        "length_m": 41.921104,
        "region_id": "E12"
      },
      "geometry": {
        "type": "LineString",
        "coordinates": [
          [
            110.64728673350075,
            35.60439432575611
          ],
          [
            110.64774990138226,
            35.60439432575611
          ]
        ]
      }
    },
    {
      "type": "Feature",
      "properties": {
        "index": 9,
        "sequence": 9,
        "kind": "connector",
        "length_m": 1.003006,
        "region_id": "E12"
      },
      "geometry": {
        "type": "LineString",
        "coordinates": [
          [
            110.64774990138226,
            35.60439432575611
          ],
          [
            110.64774993458934,
            35.60439432575611
          ],
          [
            110.64774993458934,
            35.60438527925711
          ]
        ]
      }
    },
    {
      "type": "Feature",
      "properties": {
        "index": 10,
        "sequence": 10,
        "kind": "coverage",
        "length_m": 41.921104,
        "region_id": "E12"
      },
      "geometry": {
        "type": "LineString",
        "coordinates": [
          [
            110.64774993458934,
            35.60438527925711
          ],
          [
            110.64728676670785,
            35.60438527925711
          ]
        ]
      }
    },
    {
      "type": "Feature",
      "properties": {
        "index": 11,
        "sequence": 11,
        "kind": "connector",
        "length_m": 1.003006,
        "region_id": "E12"
      },
      "geometry": {
        "type": "LineString",
        "coordinates": [
          [
            110.64728676670785,
            35.60438527925711
          ],
          [
            110.64728679991495,
            35.60438527925711
          ],
          [
            110.64728679991495,
            35.6043762327581
          ]
        ]
      }
    },
    {
      "type": "Feature",
      "properties": {
        "index": 12,
        "sequence": 12,
        "kind": "coverage",
        "length_m": 41.921104,
        "region_id": "E12"
      },
      "geometry": {
        "type": "LineString",
        "coordinates": [
          [
            110.64728679991495,
            35.6043762327581
          ],
          [
            110.64774996779644,
            35.6043762327581
          ]
        ]
      }
    },
    {
      "type": "Feature",
      "properties": {
        "index": 13,
        "sequence": 13,
        "kind": "connector",
        "length_m": 1.003006,
        "region_id": "E12"
      },
      "geometry": {
        "type": "LineString",
        "coordinates": [
          [
            110.64774996779644,
            35.6043762327581
          ],
          [
            110.64775000100354,
            35.6043762327581
          ],
          [
            110.64775000100354,
            35.6043671862591
          ]
        ]
      }
    },
    {
      "type": "Feature",
      "properties": {
        "index": 14,
        "sequence": 14,
        "kind": "coverage",
        "length_m": 41.921104,
        "region_id": "E12"
      },
      "geometry": {
        "type": "LineString",
        "coordinates": [
          [
            110.64775000100354,
            35.6043671862591
          ],
          [
            110.64728683312205,
            35.6043671862591
          ]
        ]
      }
    },
    {
      "type": "Feature",
      "properties": {
        "index": 15,
        "sequence": 15,
        "kind": "connector",
        "length_m": 1.003006,
        "region_id": "E12"
      },
      "geometry": {
        "type": "LineString",
        "coordinates": [
          [
            110.64728683312205,
            35.6043671862591
          ],
          [
            110.64728686632914,
            35.6043671862591
          ],
          [
            110.64728686632914,
            35.604358139760095
          ]
        ]
      }
    },
    {
      "type": "Feature",
      "properties": {
        "index": 16,
        "sequence": 16,
        "kind": "coverage",
        "length_m": 41.921104,
        "region_id": "E12"
      },
      "geometry": {
        "type": "LineString",
        "coordinates": [
          [
            110.64728686632914,
            35.604358139760095
          ],
          [
            110.64775003421065,
            35.604358139760095
          ]
        ]
      }
    },
    {
      "type": "Feature",
      "properties": {
        "index": 17,
        "sequence": 17,
        "kind": "connector",
        "length_m": 1.003006,
        "region_id": "E12"
      },
      "geometry": {
        "type": "LineString",
        "coordinates": [
          [
            110.64775003421065,
            35.604358139760095
          ],
          [
            110.64775006741775,
            35.604358139760095
          ],
          [
            110.64775006741775,
            35.604349093261085
          ]
        ]
      }
    },
    {
      "type": "Feature",
      "properties": {
        "index": 18,
        "sequence": 18,
        "kind": "coverage",
        "length_m": 41.921104,
        "region_id": "E12"
      },
      "geometry": {
        "type": "LineString",
        "coordinates": [
          [
            110.64775006741775,
            35.604349093261085
          ],
          [
            110.64728689953624,
            35.604349093261085
          ]
        ]
      }
    },
    {
      "type": "Feature",
      "properties": {
        "index": 19,
        "sequence": 19,
        "kind": "connector",
        "length_m": 1.003006,
        "region_id": "E12"
      },
      "geometry": {
        "type": "LineString",
        "coordinates": [
          [
            110.64728689953624,
            35.604349093261085
          ],
          [
            110.64728693274334,
            35.604349093261085
          ],
          [
            110.64728693274334,
            35.60434004676208
          ]
        ]
      }
    },
    {
      "type": "Feature",
      "properties": {
        "index": 20,
        "sequence": 20,
        "kind": "coverage",
        "length_m": 41.921104,
        "region_id": "E12"
      },
      "geometry": {
        "type": "LineString",
        "coordinates": [
          [
            110.64728693274334,
            35.60434004676208
          ],
          [
            110.64775010062485,
            35.60434004676208
          ]
        ]
      }
    },
    {
      "type": "Feature",
      "properties": {
        "index": 21,
        "sequence": 21,
        "kind": "connector",
        "length_m": 1.003006,
        "region_id": "E12"
      },
      "geometry": {
        "type": "LineString",
        "coordinates": [
          [
            110.64775010062485,
            35.60434004676208
          ],
          [
            110.64775013383195,
            35.60434004676208
          ],
          [
            110.64775013383195,
            35.60433100026308
          ]
        ]
      }
    },
    {
      "type": "Feature",
      "properties": {
        "index": 22,
        "sequence": 22,
        "kind": "coverage",
        "length_m": 41.921104,
        "region_id": "E12"
      },
      "geometry": {
        "type": "LineString",
        "coordinates": [
          [
            110.64775013383195,
            35.60433100026308
          ],
          [
            110.64728696595044,
            35.60433100026308
          ]
        ]
      }
    },
    {
      "type": "Feature",
      "properties": {
        "index": 23,
        "sequence": 23,
        "kind": "connector",
        "length_m": 1.003006,
        "region_id": "E12"
      },
      "geometry": {
        "type": "LineString",
        "coordinates": [
          [
            110.64728696595044,
            35.60433100026308
          ],
          [
            110.64728699915754,
            35.60433100026308
          ],
          [
            110.64728699915754,
            35.60432195376407
          ]
        ]
      }
    },
    {
      "type": "Feature",
      "properties": {
        "index": 24,
        "sequence": 24,
        "kind": "coverage",
        "length_m": 41.921104,
        "region_id": "E12"
      },
      "geometry": {
        "type": "LineString",
        "coordinates": [
          [
            110.64728699915754,
            35.60432195376407
          ],
          [
            110.64775016703905,
            35.60432195376407
          ]
        ]
      }
    },
    {
      "type": "Feature",
      "properties": {
        "index": 25,
        "sequence": 25,
        "kind": "connector",
        "length_m": 1.003006,
        "region_id": "E12"
      },
      "geometry": {
        "type": "LineString",
        "coordinates": [
          [
            110.64775016703905,
            35.60432195376407
          ],
          [
            110.64775020024614,
            35.60432195376407
          ],
          [
            110.64775020024614,
            35.60431290726507
          ]
        ]
      }
    },
    {
      "type": "Feature",
      "properties": {
        "index": 26,
        "sequence": 26,
        "kind": "coverage",
        "length_m": 41.921104,
        "region_id": "E12"
      },
      "geometry": {
        "type": "LineString",
        "coordinates": [
          [
            110.64775020024614,
            35.60431290726507
          ],
          [
            110.64728703236464,
            35.60431290726507
          ]
        ]
      }
    },
    {
      "type": "Feature",
      "properties": {
        "index": 27,
        "sequence": 27,
        "kind": "connector",
        "length_m": 1.003006,
        "region_id": "E12"
      },
      "geometry": {
        "type": "LineString",
        "coordinates": [
          [
            110.64728703236464,
            35.60431290726507
          ],
          [
            110.64728706557173,
            35.60431290726507
          ],
          [
            110.64728706557173,
            35.604303860766066
          ]
        ]
      }
    },
    {
      "type": "Feature",
      "properties": {
        "index": 28,
        "sequence": 28,
        "kind": "coverage",
        "length_m": 41.921104,
        "region_id": "E12"
      },
      "geometry": {
        "type": "LineString",
        "coordinates": [
          [
            110.64728706557173,
            35.604303860766066
          ],
          [
            110.64775023345324,
            35.604303860766066
          ]
        ]
      }
    },
    {
      "type": "Feature",
      "properties": {
        "index": 29,
        "sequence": 29,
        "kind": "connector",
        "length_m": 7.579495,
        "connector_id": "bridge_12-13B",
        "from_region": "E12",
        "to_region": "E13"
      },
      "geometry": {
        "type": "LineString",
        "coordinates": [
          [
            110.64775023345324,
            35.604303860766066
          ],
          [
            110.64776463744738,
            35.60429273226822
          ],
          [
            110.64776463765942,
            35.60429182761834
          ],
          [
            110.64776464523588,
            35.604259503858835
          ],
          [
            110.64775032592456,
            35.60424439543739
          ]
        ]
      }
    },
    {
      "type": "Feature",
      "properties": {
        "index": 30,
        "sequence": 30,
        "kind": "coverage",
        "length_m": 27.965697,
        "region_id": "E13"
      },
      "geometry": {
        "type": "LineString",
        "coordinates": [
          [
            110.64775032592456,
            35.60424439543739
          ],
          [
            110.64744134521,
            35.60424439543739
          ]
        ]
      }
    },
    {
      "type": "Feature",
      "properties": {
        "index": 31,
        "sequence": 31,
        "kind": "connector",
        "length_m": 2.971857,
        "region_id": "E13"
      },
      "geometry": {
        "type": "LineString",
        "coordinates": [
          [
            110.64744134521,
            35.60424439543739
          ],
          [
            110.64740851046392,
            35.60424439543739
          ]
        ]
      }
    },
    {
      "type": "Feature",
      "properties": {
        "index": 32,
        "sequence": 32,
        "kind": "coverage",
        "length_m": 10.962005,
        "region_id": "E13"
      },
      "geometry": {
        "type": "LineString",
        "coordinates": [
          [
            110.64740851046392,
            35.60424439543739
          ],
          [
            110.64728739607928,
            35.60424439543739
          ]
        ]
      }
    },
    {
      "type": "Feature",
      "properties": {
        "index": 33,
        "sequence": 33,
        "kind": "connector",
        "length_m": 1.002872,
        "region_id": "E13"
      },
      "geometry": {
        "type": "LineString",
        "coordinates": [
          [
            110.64728739607928,
            35.60424439543739
          ],
          [
            110.64728742780837,
            35.60424439543739
          ],
          [
            110.64728742780837,
            35.60423534893839
          ]
        ]
      }
    },
    {
      "type": "Feature",
      "properties": {
        "index": 34,
        "sequence": 34,
        "kind": "coverage",
        "length_m": 10.962005,
        "region_id": "E13"
      },
      "geometry": {
        "type": "LineString",
        "coordinates": [
          [
            110.64728742780837,
            35.60423534893839
          ],
          [
            110.647408542193,
            35.60423534893839
          ]
        ]
      }
    },
    {
      "type": "Feature",
      "properties": {
        "index": 35,
        "sequence": 35,
        "kind": "connector",
        "length_m": 2.971028,
        "region_id": "E13"
      },
      "geometry": {
        "type": "LineString",
        "coordinates": [
          [
            110.647408542193,
            35.60423534893839
          ],
          [
            110.64744136777826,
            35.60423534893839
          ]
        ]
      }
    },
    {
      "type": "Feature",
      "properties": {
        "index": 36,
        "sequence": 36,
        "kind": "coverage",
        "length_m": 27.965697,
        "region_id": "E13"
      },
      "geometry": {
        "type": "LineString",
        "coordinates": [
          [
            110.64744136777826,
            35.60423534893839
          ],
          [
            110.6477503484928,
            35.60423534893839
          ]
        ]
      }
    },
    {
      "type": "Feature",
      "properties": {
        "index": 37,
        "sequence": 37,
        "kind": "connector",
        "length_m": 1.002043,
        "region_id": "E13"
      },
      "geometry": {
        "type": "LineString",
        "coordinates": [
          [
            110.6477503484928,
            35.60423534893839
          ],
          [
            110.64775037106106,
            35.60423534893839
          ],
          [
            110.64775037106106,
            35.604226302439386
          ]
        ]
      }
    },
    {
      "type": "Feature",
      "properties": {
        "index": 38,
        "sequence": 38,
        "kind": "coverage",
        "length_m": 27.965697,
        "region_id": "E13"
      },
      "geometry": {
        "type": "LineString",
        "coordinates": [
          [
            110.64775037106106,
            35.604226302439386
          ],
          [
            110.6474413903465,
            35.604226302439386
          ]
        ]
      }
    },
    {
      "type": "Feature",
      "properties": {
        "index": 39,
        "sequence": 39,
        "kind": "connector",
        "length_m": 2.970199,
        "region_id": "E13"
      },
      "geometry": {
        "type": "LineString",
        "coordinates": [
          [
            110.6474413903465,
            35.604226302439386
          ],
          [
            110.64740857392208,
            35.604226302439386
          ]
        ]
      }
    },
    {
      "type": "Feature",
      "properties": {
        "index": 40,
        "sequence": 40,
        "kind": "coverage",
        "length_m": 10.962005,
        "region_id": "E13"
      },
      "geometry": {
        "type": "LineString",
        "coordinates": [
          [
            110.64740857392208,
            35.604226302439386
          ],
          [
            110.64728745953744,
            35.604226302439386
          ]
        ]
      }
    },
    {
      "type": "Feature",
      "properties": {
        "index": 41,
        "sequence": 41,
        "kind": "connector",
        "length_m": 1.002872,
        "region_id": "E13"
      },
      "geometry": {
        "type": "LineString",
        "coordinates": [
          [
            110.64728745953744,
            35.604226302439386
          ],
          [
            110.64728749126651,
            35.604226302439386
          ],
          [
            110.64728749126651,
            35.60421725594038
          ]
        ]
      }
    },
    {
      "type": "Feature",
      "properties": {
        "index": 42,
        "sequence": 42,
        "kind": "coverage",
        "length_m": 10.962005,
        "region_id": "E13"
      },
      "geometry": {
        "type": "LineString",
        "coordinates": [
          [
            110.64728749126651,
            35.60421725594038
          ],
          [
            110.64740860565115,
            35.60421725594038
          ]
        ]
      }
    },
    {
      "type": "Feature",
      "properties": {
        "index": 43,
        "sequence": 43,
        "kind": "connector",
        "length_m": 2.96937,
        "region_id": "E13"
      },
      "geometry": {
        "type": "LineString",
        "coordinates": [
          [
            110.64740860565115,
            35.60421725594038
          ],
          [
            110.64744141291476,
            35.60421725594038
          ]
        ]
      }
    },
    {
      "type": "Feature",
      "properties": {
        "index": 44,
        "sequence": 44,
        "kind": "coverage",
        "length_m": 27.965697,
        "region_id": "E13"
      },
      "geometry": {
        "type": "LineString",
        "coordinates": [
          [
            110.64744141291476,
            35.60421725594038
          ],
          [
            110.64775039362932,
            35.60421725594038
          ]
        ]
      }
    },
    {
      "type": "Feature",
      "properties": {
        "index": 45,
        "sequence": 45,
        "kind": "connector",
        "length_m": 1.002043,
        "region_id": "E13"
      },
      "geometry": {
        "type": "LineString",
        "coordinates": [
          [
            110.64775039362932,
            35.60421725594038
          ],
          [
            110.64775041619757,
            35.60421725594038
          ],
          [
            110.64775041619757,
            35.604208209441374
          ]
        ]
      }
    },
    {
      "type": "Feature",
      "properties": {
        "index": 46,
        "sequence": 46,
        "kind": "coverage",
        "length_m": 27.965697,
        "region_id": "E13"
      },
      "geometry": {
        "type": "LineString",
        "coordinates": [
          [
            110.64775041619757,
            35.604208209441374
          ],
          [
            110.647441435483,
            35.604208209441374
          ]
        ]
      }
    },
    {
      "type": "Feature",
      "properties": {
        "index": 47,
        "sequence": 47,
        "kind": "connector",
        "length_m": 2.968541,
        "region_id": "E13"
      },
      "geometry": {
        "type": "LineString",
        "coordinates": [
          [
            110.647441435483,
            35.604208209441374
          ],
          [
            110.64740863738022,
            35.604208209441374
          ]
        ]
      }
    },
    {
      "type": "Feature",
      "properties": {
        "index": 48,
        "sequence": 48,
        "kind": "coverage",
        "length_m": 10.962005,
        "region_id": "E13"
      },
      "geometry": {
        "type": "LineString",
        "coordinates": [
          [
            110.64740863738022,
            35.604208209441374
          ],
          [
            110.64728752299558,
            35.604208209441374
          ]
        ]
      }
    },
    {
      "type": "Feature",
      "properties": {
        "index": 49,
        "sequence": 49,
        "kind": "connector",
        "length_m": 1.002872,
        "region_id": "E13"
      },
      "geometry": {
        "type": "LineString",
        "coordinates": [
          [
            110.64728752299558,
            35.604208209441374
          ],
          [
            110.64728755472466,
            35.604208209441374
          ],
          [
            110.64728755472466,
            35.604199162942365
          ]
        ]
      }
    },
    {
      "type": "Feature",
      "properties": {
        "index": 50,
        "sequence": 50,
        "kind": "coverage",
        "length_m": 10.962005,
        "region_id": "E13"
      },
      "geometry": {
        "type": "LineString",
        "coordinates": [
          [
            110.64728755472466,
            35.604199162942365
          ],
          [
            110.6474086691093,
            35.604199162942365
          ]
        ]
      }
    },
    {
      "type": "Feature",
      "properties": {
        "index": 51,
        "sequence": 51,
        "kind": "connector",
        "length_m": 2.967711,
        "region_id": "E13"
      },
      "geometry": {
        "type": "LineString",
        "coordinates": [
          [
            110.6474086691093,
            35.604199162942365
          ],
          [
            110.64744145805126,
            35.604199162942365
          ]
        ]
      }
    },
    {
      "type": "Feature",
      "properties": {
        "index": 52,
        "sequence": 52,
        "kind": "coverage",
        "length_m": 27.965697,
        "region_id": "E13"
      },
      "geometry": {
        "type": "LineString",
        "coordinates": [
          [
            110.64744145805126,
            35.604199162942365
          ],
          [
            110.64775043876583,
            35.604199162942365
          ]
        ]
      }
    },
    {
      "type": "Feature",
      "properties": {
        "index": 53,
        "sequence": 53,
        "kind": "connector",
        "length_m": 1.002043,
        "region_id": "E13"
      },
      "geometry": {
        "type": "LineString",
        "coordinates": [
          [
            110.64775043876583,
            35.604199162942365
          ],
          [
            110.64775046133408,
            35.604199162942365
          ],
          [
            110.64775046133408,
            35.60419011644336
          ]
        ]
      }
    },
    {
      "type": "Feature",
      "properties": {
        "index": 54,
        "sequence": 54,
        "kind": "coverage",
        "length_m": 27.965697,
        "region_id": "E13"
      },
      "geometry": {
        "type": "LineString",
        "coordinates": [
          [
            110.64775046133408,
            35.60419011644336
          ],
          [
            110.64744148061952,
            35.60419011644336
          ]
        ]
      }
    },
    {
      "type": "Feature",
      "properties": {
        "index": 55,
        "sequence": 55,
        "kind": "connector",
        "length_m": 2.966882,
        "region_id": "E13"
      },
      "geometry": {
        "type": "LineString",
        "coordinates": [
          [
            110.64744148061952,
            35.60419011644336
          ],
          [
            110.64740870083837,
            35.60419011644336
          ]
        ]
      }
    },
    {
      "type": "Feature",
      "properties": {
        "index": 56,
        "sequence": 56,
        "kind": "coverage",
        "length_m": 10.962005,
        "region_id": "E13"
      },
      "geometry": {
        "type": "LineString",
        "coordinates": [
          [
            110.64740870083837,
            35.60419011644336
          ],
          [
            110.64728758645373,
            35.60419011644336
          ]
        ]
      }
    },
    {
      "type": "Feature",
      "properties": {
        "index": 57,
        "sequence": 57,
        "kind": "connector",
        "length_m": 1.002872,
        "region_id": "E13"
      },
      "geometry": {
        "type": "LineString",
        "coordinates": [
          [
            110.64728758645373,
            35.60419011644336
          ],
          [
            110.64728761818282,
            35.60419011644336
          ],
          [
            110.64728761818282,
            35.60418106994436
          ]
        ]
      }
    },
    {
      "type": "Feature",
      "properties": {
        "index": 58,
        "sequence": 58,
        "kind": "coverage",
        "length_m": 10.962005,
        "region_id": "E13"
      },
      "geometry": {
        "type": "LineString",
        "coordinates": [
          [
            110.64728761818282,
            35.60418106994436
          ],
          [
            110.64740873256746,
            35.60418106994436
          ]
        ]
      }
    },
    {
      "type": "Feature",
      "properties": {
        "index": 59,
        "sequence": 59,
        "kind": "connector",
        "length_m": 2.966053,
        "region_id": "E13"
      },
      "geometry": {
        "type": "LineString",
        "coordinates": [
          [
            110.64740873256746,
            35.60418106994436
          ],
          [
            110.64744150318776,
            35.60418106994436
          ]
        ]
      }
    },
    {
      "type": "Feature",
      "properties": {
        "index": 60,
        "sequence": 60,
        "kind": "coverage",
        "length_m": 27.965697,
        "region_id": "E13"
      },
      "geometry": {
        "type": "LineString",
        "coordinates": [
          [
            110.64744150318776,
            35.60418106994436
          ],
          [
            110.64775048390233,
            35.60418106994436
          ]
        ]
      }
    },
    {
      "type": "Feature",
      "properties": {
        "index": 61,
        "sequence": 61,
        "kind": "connector",
        "length_m": 1.002043,
        "region_id": "E13"
      },
      "geometry": {
        "type": "LineString",
        "coordinates": [
          [
            110.64775048390233,
            35.60418106994436
          ],
          [
            110.64775050647059,
            35.60418106994436
          ],
          [
            110.64775050647059,
            35.60417202344535
          ]
        ]
      }
    },
    {
      "type": "Feature",
      "properties": {
        "index": 62,
        "sequence": 62,
        "kind": "coverage",
        "length_m": 27.965697,
        "region_id": "E13"
      },
      "geometry": {
        "type": "LineString",
        "coordinates": [
          [
            110.64775050647059,
            35.60417202344535
          ],
          [
            110.64744152575602,
            35.60417202344535
          ]
        ]
      }
    },
    {
      "type": "Feature",
      "properties": {
        "index": 63,
        "sequence": 63,
        "kind": "connector",
        "length_m": 2.965224,
        "region_id": "E13"
      },
      "geometry": {
        "type": "LineString",
        "coordinates": [
          [
            110.64744152575602,
            35.60417202344535
          ],
          [
            110.64740876429653,
            35.60417202344535
          ]
        ]
      }
    },
    {
      "type": "Feature",
      "properties": {
        "index": 64,
        "sequence": 64,
        "kind": "coverage",
        "length_m": 10.962005,
        "region_id": "E13"
      },
      "geometry": {
        "type": "LineString",
        "coordinates": [
          [
            110.64740876429653,
            35.60417202344535
          ],
          [
            110.64728764991189,
            35.60417202344535
          ]
        ]
      }
    },
    {
      "type": "Feature",
      "properties": {
        "index": 65,
        "sequence": 65,
        "kind": "connector",
        "length_m": 2.005744,
        "region_id": "E13"
      },
      "geometry": {
        "type": "LineString",
        "coordinates": [
          [
            110.64728764991189,
            35.60417202344535
          ],
          [
            110.64728771337003,
            35.60417202344535
          ],
          [
            110.64728771337003,
            35.604153930447346
          ]
        ]
      }
    },
    {
      "type": "Feature",
      "properties": {
        "index": 66,
        "sequence": 66,
        "kind": "coverage",
        "length_m": 10.962005,
        "region_id": "E13"
      },
      "geometry": {
        "type": "LineString",
        "coordinates": [
          [
            110.64728771337003,
            35.604153930447346
          ],
          [
            110.64740882775467,
            35.604153930447346
          ]
        ]
      }
    },
    {
      "type": "Feature",
      "properties": {
        "index": 67,
        "sequence": 67,
        "kind": "connector",
        "length_m": 1.002872,
        "region_id": "E13"
      },
      "geometry": {
        "type": "LineString",
        "coordinates": [
          [
            110.64740882775467,
            35.604153930447346
          ],
          [
            110.64740885948375,
            35.604153930447346
          ],
          [
            110.64740885948375,
            35.60414488394834
          ]
        ]
      }
    },
    {
      "type": "Feature",
      "properties": {
        "index": 68,
        "sequence": 68,
        "kind": "coverage",
        "length_m": 10.962005,
        "region_id": "E13"
      },
      "geometry": {
        "type": "LineString",
        "coordinates": [
          [
            110.64740885948375,
            35.60414488394834
          ],
          [
            110.6472877450991,
            35.60414488394834
          ]
        ]
      }
    },
    {
      "type": "Feature",
      "properties": {
        "index": 69,
        "sequence": 69,
        "kind": "connector",
        "length_m": 2.005744,
        "region_id": "E13"
      },
      "geometry": {
        "type": "LineString",
        "coordinates": [
          [
            110.6472877450991,
            35.60414488394834
          ],
          [
            110.64728768164096,
            35.60414488394834
          ],
          [
            110.64728768164096,
            35.60416297694635
          ]
        ]
      }
    },
    {
      "type": "Feature",
      "properties": {
        "index": 70,
        "sequence": 70,
        "kind": "coverage",
        "length_m": 10.962005,
        "region_id": "E13"
      },
      "geometry": {
        "type": "LineString",
        "coordinates": [
          [
            110.64728768164096,
            35.60416297694635
          ],
          [
            110.6474087960256,
            35.60416297694635
          ]
        ]
      }
    },
    {
      "type": "Feature",
      "properties": {
        "index": 71,
        "sequence": 71,
        "kind": "connector",
        "length_m": 2.964395,
        "region_id": "E13"
      },
      "geometry": {
        "type": "LineString",
        "coordinates": [
          [
            110.6474087960256,
            35.60416297694635
          ],
          [
            110.64744154832427,
            35.60416297694635
          ]
        ]
      }
    },
    {
      "type": "Feature",
      "properties": {
        "index": 72,
        "sequence": 72,
        "kind": "coverage",
        "length_m": 27.965697,
        "region_id": "E13"
      },
      "geometry": {
        "type": "LineString",
        "coordinates": [
          [
            110.64744154832427,
            35.60416297694635
          ],
          [
            110.64775052903885,
            35.60416297694635
          ]
        ]
      }
    },
    {
      "type": "Feature",
      "properties": {
        "index": 73,
        "sequence": 73,
        "kind": "connector",
        "length_m": 16.756314,
        "connector_id": "bridge_13-14B",
        "from_region": "E13",
        "to_region": "E14"
      },
      "geometry": {
        "type": "LineString",
        "coordinates": [
          [
            110.64775052903885,
            35.60416297694635
          ],
          [
            110.64776491482968,
            35.60415389596566
          ],
          [
            110.64776492024647,
            35.60415299132663
          ],
          [
            110.64776558985245,
            35.60404148830957
          ],
          [
            110.64776611213199,
            35.60402895489717
          ],
          [
            110.64775175115146,
            35.60402863071215
          ]
        ]
      }
    },
    {
      "type": "Feature",
      "properties": {
        "index": 74,
        "sequence": 74,
        "kind": "coverage",
        "length_m": 41.980166,
        "region_id": "E14"
      },
      "geometry": {
        "type": "LineString",
        "coordinates": [
          [
            110.64775175115146,
            35.60402863071215
          ],
          [
            110.64728793071434,
            35.60402863071215
          ]
        ]
      }
    },
    {
      "type": "Feature",
      "properties": {
        "index": 75,
        "sequence": 75,
        "kind": "connector",
        "length_m": 1.005557,
        "region_id": "E14"
      },
      "geometry": {
        "type": "LineString",
        "coordinates": [
          [
            110.64728793071434,
            35.60402863071215
          ],
          [
            110.64728799211451,
            35.60402863071215
          ],
          [
            110.64728799211451,
            35.60401958421314
          ]
        ]
      }
    },
    {
      "type": "Feature",
      "properties": {
        "index": 76,
        "sequence": 76,
        "kind": "coverage",
        "length_m": 41.980166,
        "region_id": "E14"
      },
      "geometry": {
        "type": "LineString",
        "coordinates": [
          [
            110.64728799211451,
            35.60401958421314
          ],
          [
            110.64775181255165,
            35.60401958421314
          ]
        ]
      }
    },
    {
      "type": "Feature",
      "properties": {
        "index": 77,
        "sequence": 77,
        "kind": "connector",
        "length_m": 1.005557,
        "region_id": "E14"
      },
      "geometry": {
        "type": "LineString",
        "coordinates": [
          [
            110.64775181255165,
            35.60401958421314
          ],
          [
            110.64775187395183,
            35.60401958421314
          ],
          [
            110.64775187395183,
            35.60401053771414
          ]
        ]
      }
    },
    {
      "type": "Feature",
      "properties": {
        "index": 78,
        "sequence": 78,
        "kind": "coverage",
        "length_m": 41.980166,
        "region_id": "E14"
      },
      "geometry": {
        "type": "LineString",
        "coordinates": [
          [
            110.64775187395183,
            35.60401053771414
          ],
          [
            110.6472880535147,
            35.60401053771414
          ]
        ]
      }
    },
    {
      "type": "Feature",
      "properties": {
        "index": 79,
        "sequence": 79,
        "kind": "connector",
        "length_m": 1.005557,
        "region_id": "E14"
      },
      "geometry": {
        "type": "LineString",
        "coordinates": [
          [
            110.6472880535147,
            35.60401053771414
          ],
          [
            110.64728811491489,
            35.60401053771414
          ],
          [
            110.64728811491489,
            35.604001491215136
          ]
        ]
      }
    },
    {
      "type": "Feature",
      "properties": {
        "index": 80,
        "sequence": 80,
        "kind": "coverage",
        "length_m": 41.980166,
        "region_id": "E14"
      },
      "geometry": {
        "type": "LineString",
        "coordinates": [
          [
            110.64728811491489,
            35.604001491215136
          ],
          [
            110.647751935352,
            35.604001491215136
          ]
        ]
      }
    },
    {
      "type": "Feature",
      "properties": {
        "index": 81,
        "sequence": 81,
        "kind": "connector",
        "length_m": 1.005557,
        "region_id": "E14"
      },
      "geometry": {
        "type": "LineString",
        "coordinates": [
          [
            110.647751935352,
            35.604001491215136
          ],
          [
            110.64775199675219,
            35.604001491215136
          ],
          [
            110.64775199675219,
            35.60399244471613
          ]
        ]
      }
    },
    {
      "type": "Feature",
      "properties": {
        "index": 82,
        "sequence": 82,
        "kind": "coverage",
        "length_m": 41.980166,
        "region_id": "E14"
      },
      "geometry": {
        "type": "LineString",
        "coordinates": [
          [
            110.64775199675219,
            35.60399244471613
          ],
          [
            110.64728817631506,
            35.60399244471613
          ]
        ]
      }
    },
    {
      "type": "Feature",
      "properties": {
        "index": 83,
        "sequence": 83,
        "kind": "connector",
        "length_m": 1.005557,
        "region_id": "E14"
      },
      "geometry": {
        "type": "LineString",
        "coordinates": [
          [
            110.64728817631506,
            35.60399244471613
          ],
          [
            110.64728823771524,
            35.60399244471613
          ],
          [
            110.64728823771524,
            35.603983398217125
          ]
        ]
      }
    },
    {
      "type": "Feature",
      "properties": {
        "index": 84,
        "sequence": 84,
        "kind": "coverage",
        "length_m": 41.980166,
        "region_id": "E14"
      },
      "geometry": {
        "type": "LineString",
        "coordinates": [
          [
            110.64728823771524,
            35.603983398217125
          ],
          [
            110.64775205815238,
            35.603983398217125
          ]
        ]
      }
    },
    {
      "type": "Feature",
      "properties": {
        "index": 85,
        "sequence": 85,
        "kind": "connector",
        "length_m": 1.005557,
        "region_id": "E14"
      },
      "geometry": {
        "type": "LineString",
        "coordinates": [
          [
            110.64775205815238,
            35.603983398217125
          ],
          [
            110.64775211955255,
            35.603983398217125
          ],
          [
            110.64775211955255,
            35.603974351718115
          ]
        ]
      }
    },
    {
      "type": "Feature",
      "properties": {
        "index": 86,
        "sequence": 86,
        "kind": "coverage",
        "length_m": 41.980166,
        "region_id": "E14"
      },
      "geometry": {
        "type": "LineString",
        "coordinates": [
          [
            110.64775211955255,
            35.603974351718115
          ],
          [
            110.64728829911543,
            35.603974351718115
          ]
        ]
      }
    },
    {
      "type": "Feature",
      "properties": {
        "index": 87,
        "sequence": 87,
        "kind": "connector",
        "length_m": 1.005557,
        "region_id": "E14"
      },
      "geometry": {
        "type": "LineString",
        "coordinates": [
          [
            110.64728829911543,
            35.603974351718115
          ],
          [
            110.6472883605156,
            35.603974351718115
          ],
          [
            110.6472883605156,
            35.60396530521911
          ]
        ]
      }
    },
    {
      "type": "Feature",
      "properties": {
        "index": 88,
        "sequence": 88,
        "kind": "coverage",
        "length_m": 41.980166,
        "region_id": "E14"
      },
      "geometry": {
        "type": "LineString",
        "coordinates": [
          [
            110.6472883605156,
            35.60396530521911
          ],
          [
            110.64775218095274,
            35.60396530521911
          ]
        ]
      }
    },
    {
      "type": "Feature",
      "properties": {
        "index": 89,
        "sequence": 89,
        "kind": "connector",
        "length_m": 1.005557,
        "region_id": "E14"
      },
      "geometry": {
        "type": "LineString",
        "coordinates": [
          [
            110.64775218095274,
            35.60396530521911
          ],
          [
            110.64775224235292,
            35.60396530521911
          ],
          [
            110.64775224235292,
            35.60395625872011
          ]
        ]
      }
    },
    {
      "type": "Feature",
      "properties": {
        "index": 90,
        "sequence": 90,
        "kind": "coverage",
        "length_m": 41.980166,
        "region_id": "E14"
      },
      "geometry": {
        "type": "LineString",
        "coordinates": [
          [
            110.64775224235292,
            35.60395625872011
          ],
          [
            110.64728842191579,
            35.60395625872011
          ]
        ]
      }
    },
    {
      "type": "Feature",
      "properties": {
        "index": 91,
        "sequence": 91,
        "kind": "connector",
        "length_m": 1.005557,
        "region_id": "E14"
      },
      "geometry": {
        "type": "LineString",
        "coordinates": [
          [
            110.64728842191579,
            35.60395625872011
          ],
          [
            110.64728848331596,
            35.60395625872011
          ],
          [
            110.64728848331596,
            35.6039472122211
          ]
        ]
      }
    },
    {
      "type": "Feature",
      "properties": {
        "index": 92,
        "sequence": 92,
        "kind": "coverage",
        "length_m": 41.980166,
        "region_id": "E14"
      },
      "geometry": {
        "type": "LineString",
        "coordinates": [
          [
            110.64728848331596,
            35.6039472122211
          ],
          [
            110.6477523037531,
            35.6039472122211
          ]
        ]
      }
    },
    {
      "type": "Feature",
      "properties": {
        "index": 93,
        "sequence": 93,
        "kind": "connector",
        "length_m": 1.005557,
        "region_id": "E14"
      },
      "geometry": {
        "type": "LineString",
        "coordinates": [
          [
            110.6477523037531,
            35.6039472122211
          ],
          [
            110.64775236515328,
            35.6039472122211
          ],
          [
            110.64775236515328,
            35.6039381657221
          ]
        ]
      }
    },
    {
      "type": "Feature",
      "properties": {
        "index": 94,
        "sequence": 94,
        "kind": "coverage",
        "length_m": 41.980166,
        "region_id": "E14"
      },
      "geometry": {
        "type": "LineString",
        "coordinates": [
          [
            110.64775236515328,
            35.6039381657221
          ],
          [
            110.64728854471615,
            35.6039381657221
          ]
        ]
      }
    },
    {
      "type": "Feature",
      "properties": {
        "index": 95,
        "sequence": 95,
        "kind": "connector",
        "length_m": 1.005557,
        "region_id": "E14"
      },
      "geometry": {
        "type": "LineString",
        "coordinates": [
          [
            110.64728854471615,
            35.6039381657221
          ],
          [
            110.64728860611633,
            35.6039381657221
          ],
          [
            110.64728860611633,
            35.603929119223096
          ]
        ]
      }
    },
    {
      "type": "Feature",
      "properties": {
        "index": 96,
        "sequence": 96,
        "kind": "coverage",
        "length_m": 41.980166,
        "region_id": "E14"
      },
      "geometry": {
        "type": "LineString",
        "coordinates": [
          [
            110.64728860611633,
            35.603929119223096
          ],
          [
            110.64775242655347,
            35.603929119223096
          ]
        ]
      }
    },
    {
      "type": "Feature",
      "properties": {
        "index": 97,
        "sequence": 97,
        "kind": "connector",
        "length_m": 1.005557,
        "region_id": "E14"
      },
      "geometry": {
        "type": "LineString",
        "coordinates": [
          [
            110.64775242655347,
            35.603929119223096
          ],
          [
            110.64775248795364,
            35.603929119223096
          ],
          [
            110.64775248795364,
            35.60392007272409
          ]
        ]
      }
    },
    {
      "type": "Feature",
      "properties": {
        "index": 98,
        "sequence": 98,
        "kind": "coverage",
        "length_m": 41.980166,
        "region_id": "E14"
      },
      "geometry": {
        "type": "LineString",
        "coordinates": [
          [
            110.64775248795364,
            35.60392007272409
          ],
          [
            110.6472886675165,
            35.60392007272409
          ]
        ]
      }
    },
    {
      "type": "Feature",
      "properties": {
        "index": 99,
        "sequence": 99,
        "kind": "connector",
        "length_m": 1.005557,
        "region_id": "E14"
      },
      "geometry": {
        "type": "LineString",
        "coordinates": [
          [
            110.6472886675165,
            35.60392007272409
          ],
          [
            110.64728872891669,
            35.60392007272409
          ],
          [
            110.64728872891669,
            35.603911026225084
          ]
        ]
      }
    },
    {
      "type": "Feature",
      "properties": {
        "index": 100,
        "sequence": 100,
        "kind": "coverage",
        "length_m": 41.980166,
        "region_id": "E14"
      },
      "geometry": {
        "type": "LineString",
        "coordinates": [
          [
            110.64728872891669,
            35.603911026225084
          ],
          [
            110.64775254935383,
            35.603911026225084
          ]
        ]
      }
    },
    {
      "type": "Feature",
      "properties": {
        "index": 101,
        "sequence": 101,
        "kind": "connector",
        "length_m": 1.005557,
        "region_id": "E14"
      },
      "geometry": {
        "type": "LineString",
        "coordinates": [
          [
            110.64775254935383,
            35.603911026225084
          ],
          [
            110.64775261075401,
            35.603911026225084
          ],
          [
            110.64775261075401,
            35.60390197972608
          ]
        ]
      }
    },
    {
      "type": "Feature",
      "properties": {
        "index": 102,
        "sequence": 102,
        "kind": "coverage",
        "length_m": 41.980166,
        "region_id": "E14"
      },
      "geometry": {
        "type": "LineString",
        "coordinates": [
          [
            110.64775261075401,
            35.60390197972608
          ],
          [
            110.64728879031688,
            35.60390197972608
          ]
        ]
      }
    },
    {
      "type": "Feature",
      "properties": {
        "index": 103,
        "sequence": 103,
        "kind": "connector",
        "length_m": 1.005557,
        "region_id": "E14"
      },
      "geometry": {
        "type": "LineString",
        "coordinates": [
          [
            110.64728879031688,
            35.60390197972608
          ],
          [
            110.64728885171705,
            35.60390197972608
          ],
          [
            110.64728885171705,
            35.60389293322707
          ]
        ]
      }
    },
    {
      "type": "Feature",
      "properties": {
        "index": 104,
        "sequence": 104,
        "kind": "coverage",
        "length_m": 41.980166,
        "region_id": "E14"
      },
      "geometry": {
        "type": "LineString",
        "coordinates": [
          [
            110.64728885171705,
            35.60389293322707
          ],
          [
            110.64775267215418,
            35.60389293322707
          ]
        ]
      }
    },
    {
      "type": "Feature",
      "properties": {
        "index": 105,
        "sequence": 105,
        "kind": "connector",
        "length_m": 1.005557,
        "region_id": "E14"
      },
      "geometry": {
        "type": "LineString",
        "coordinates": [
          [
            110.64775267215418,
            35.60389293322707
          ],
          [
            110.64775273355437,
            35.60389293322707
          ],
          [
            110.64775273355437,
            35.60388388672807
          ]
        ]
      }
    },
    {
      "type": "Feature",
      "properties": {
        "index": 106,
        "sequence": 106,
        "kind": "coverage",
        "length_m": 41.980166,
        "region_id": "E14"
      },
      "geometry": {
        "type": "LineString",
        "coordinates": [
          [
            110.64775273355437,
            35.60388388672807
          ],
          [
            110.64728891311724,
            35.60388388672807
          ]
        ]
      }
    },
    {
      "type": "Feature",
      "properties": {
        "index": 107,
        "sequence": 107,
        "kind": "connector",
        "length_m": 5.728028,
        "region_id": "E14"
      },
      "geometry": {
        "type": "LineString",
        "coordinates": [
          [
            110.64728891311724,
            35.60388388672807
          ],
          [
            110.6473411510268,
            35.60388388672807
          ],
          [
            110.6473411510268,
            35.60387484022907
          ]
        ]
      }
    },
    {
      "type": "Feature",
      "properties": {
        "index": 108,
        "sequence": 108,
        "kind": "coverage",
        "length_m": 37.257695,
        "region_id": "E14"
      },
      "geometry": {
        "type": "LineString",
        "coordinates": [
          [
            110.6473411510268,
            35.60387484022907
          ],
          [
            110.64775279495456,
            35.60387484022907
          ]
        ]
      }
    },
    {
      "type": "Feature",
      "properties": {
        "index": 109,
        "sequence": 109,
        "kind": "connector",
        "length_m": 12.146025,
        "connector_id": "back_14B-13A_stop"
      },
      "geometry": {
        "type": "LineString",
        "coordinates": [
          [
            110.64776557275421,
            35.60404401827957
          ],
          [
            110.64776491482968,
            35.60415389596566
          ]
        ]
      }
    },
    {
      "type": "Feature",
      "properties": {
        "index": 110,
        "sequence": 110,
        "kind": "connector",
        "length_m": 3.373068,
        "connector_id": "back_13B-12A"
      },
      "geometry": {
        "type": "LineString",
        "coordinates": [
          [
            110.64776464459975,
            35.60426221780848
          ],
          [
            110.64776463744738,
            35.60429273226822
          ]
        ]
      }
    },
    {
      "type": "Feature",
      "properties": {
        "index": 111,
        "sequence": 111,
        "kind": "connector",
        "length_m": 11.671849,
        "connector_id": "back_12B-11A"
      },
      "geometry": {
        "type": "LineString",
        "coordinates": [
          [
            110.64776416327175,
            35.60442191035046
          ],
          [
            110.64776313280512,
            35.60452749634761
          ]
        ]
      }
    },
    {
      "type": "Feature",
      "properties": {
        "index": 112,
        "sequence": 112,
        "kind": "connector",
        "length_m": 11.360912,
        "connector_id": "back_11B-10A"
      },
      "geometry": {
        "type": "LineString",
        "coordinates": [
          [
            110.64776265157377,
            35.60475014299974
          ],
          [
            110.64776183179559,
            35.604852917286685
          ]
        ]
      }
    },
    {
      "type": "Feature",
      "properties": {
        "index": 113,
        "sequence": 113,
        "kind": "connector",
        "length_m": 27.860092,
        "connector_id": "back_9A-8B"
      },
      "geometry": {
        "type": "LineString",
        "coordinates": [
          [
            110.6477609856752,
            35.60500043052129
          ],
          [
            110.6477602879233,
            35.605252466171876
          ]
        ]
      }
    },
    {
      "type": "Feature",
      "properties": {
        "index": 114,
        "sequence": 114,
        "kind": "connector",
        "length_m": 31.115003,
        "connector_id": "back_7A-7bA"
      },
      "geometry": {
        "type": "LineString",
        "coordinates": [
          [
            110.64776001450005,
            35.605286952396405
          ],
          [
            110.64741623970805,
            35.605286201553355
          ]
        ]
      }
    },
    {
      "type": "Feature",
      "properties": {
        "index": 115,
        "sequence": 115,
        "kind": "connector",
        "length_m": 3.916292,
        "connector_id": "back_7bB-6A"
      },
      "geometry": {
        "type": "LineString",
        "coordinates": [
          [
            110.64741521205767,
            35.605467251897565
          ],
          [
            110.64741690256913,
            35.605502653578235
          ]
        ]
      }
    },
    {
      "type": "Feature",
      "properties": {
        "index": 116,
        "sequence": 116,
        "kind": "connector",
        "length_m": 3.736123,
        "connector_id": "back_6B-5A"
      },
      "geometry": {
        "type": "LineString",
        "coordinates": [
          [
            110.64741642174106,
            35.60568374013546
          ],
          [
            110.64741639744143,
            35.60571753896705
          ]
        ]
      }
    },
    {
      "type": "Feature",
      "properties": {
        "index": 117,
        "sequence": 117,
        "kind": "connector",
        "length_m": 3.845443,
        "connector_id": "back_5B-4A"
      },
      "geometry": {
        "type": "LineString",
        "coordinates": [
          [
            110.64741549006075,
            35.60589856772437
          ],
          [
            110.64741564488955,
            35.605933355288805
          ]
        ]
      }
    }
  ]
}
